ONEWEB-0033             
1 45142U 20008M   24366.84108144  .00000620  00000+0  17389-2 0  9994
2 45142  87.8902 142.3436 0001518 110.0092 250.1199 13.10371946238491
ONEWEB-0035             
1 45143U 20008N   24366.64352806 -.00000563  00000+0 -16490-2 0  9999
2 45143  87.8908 142.3750 0001443 105.3764 254.7523 13.10373602238196
ONEWEB-0036             
1 45144U 20008P   24366.78628971 -.00000366  00000+0 -10848-2 0  9996
2 45144  87.8902 142.2958 0001566  94.4128 265.7178 13.10370461238646
ONEWEB-0038             
1 45145U 20008Q   25001.29206977 -.00000513  00000+0 -14825-2 0  9991
2 45145  87.8908 127.0554 0000840  88.7671 271.3553 13.11418110241402
ONEWEB-0039             
1 45146U 20008R   25001.07347120  .00000618  00000+0  17345-2 0  9998
2 45146  87.8904 142.2590 0001261  76.9325 283.1943 13.10371620239258
ONEWEB-0040             
1 45147U 20008S   24366.68504441  .00000691  00000+0  19444-2 0  9993
2 45147  87.8914 142.3502 0001449 100.4864 259.6426 13.10371805238127
ONEWEB-0043             
1 45149U 20008U   25001.14485291  .00000770  00000+0  21686-2 0  9993
2 45149  87.8908 142.2552 0001553  82.7744 277.3560 13.10373576239282
ONEWEB-0044             
1 45150U 20008V   24366.63855065 -.00000540  00000+0 -15829-2 0  9991
2 45150  87.8903 142.3489 0001456  91.1445 268.9849 13.10371590238732
